CCSDS_OEM_VERS = 2.0  
CREATION_DATE  = 2026-02-25T14:49:37
ORIGINATOR     = ESOC/OPS-GFA                            
 
 



META_START
OBJECT_NAME          = LISA                                    
OBJECT_ID            = -1000                                   
CENTER_NAME          = SUN                     
REF_FRAME            = EME2000 
TIME_SYSTEM          = TCB
START_TIME           = 2036-12-09T00:00:29.327664            
STOP_TIME            = 2037-01-08T00:00:29.327664            
INTERPOLATION        = HERMITE                                 
INTERPOLATION_DEGREE = 7                                       
META_STOP

2037-01-04T22:00:29.327664     1.58062317037169598e+07    1.36253652995417118e+08    5.80185793710679188e+07   -2.97476338198239638e+01    2.89179060911641050e+00    1.08274818871079503e+00   -6.35095645310747742e-07   -5.47368131268110319e-06   -2.33076483832136252e-06
2037-01-04T23:00:29.327664     1.56991361174908727e+07    1.36264027971015811e+08    5.80224621607607603e+07   -2.97499124271955750e+01    2.87208454141377167e+00    1.07435712696170471e+00   -6.30797293690540418e-07   -5.47413376799921175e-06   -2.33093600148505176e-06
2037-01-05T00:00:29.327664     1.55920323561325483e+07    1.36274332001846164e+08    5.80263147415252775e+07   -2.97521755598025628e+01    2.85237685004980968e+00    1.06596545123050301e+00   -6.26498554105527071e-07   -5.47458334672491833e-06   -2.33110593948543379e-06
2037-01-05T01:00:29.327664     1.54849204753536507e+07    1.36284565082081646e+08    5.80301371111590862e+07   -2.97544232162523699e+01    2.83266754538103083e+00    1.05757316592808559e+00   -6.22199428844126767e-07   -5.47503004843504273e-06   -2.33127465215403292e-06
2037-01-05T02:00:29.327664     1.53778005308708400e+07    1.36294727205933005e+08    5.80339292674756572e+07   -2.97566553951607347e+01    2.81295663776507698e+00    1.04918027546578974e+00   -6.17899920220142879e-07   -5.47547387287255194e-06   -2.33144213939304521e-06
2037-01-05T03:00:29.327664     1.52706725784057453e+07    1.36304818367648304e+08    5.80376912083043680e+07   -2.97588720951517018e+01    2.79324413756072154e+00    1.04078678425539417e+00   -6.13600030540637987e-07   -5.47591481974365091e-06   -2.33160840108903981e-06
2037-01-05T04:00:29.327664     1.51635366736810878e+07    1.36314838561513275e+08    5.80414229314906299e+07   -2.97610733148576969e+01    2.77353005512715711e+00    1.03239269670881195e+00   -6.09299762104939461e-07   -5.47635288868749681e-06   -2.33177343710003623e-06
2037-01-05T05:00:29.327664     1.50563928724356797e+07    1.36324787781849742e+08    5.80451244348952547e+07   -2.97632590529191852e+01    2.75381440082675022e+00    1.02399801723926731e+00   -6.04999117222251603e-07   -5.47678807941858873e-06   -2.33193724731614507e-06
2037-01-05T06:00:29.327665     1.49492412304023579e+07    1.36334666023017973e+08    5.80487957163954154e+07   -2.97654293079851868e+01    2.73409718502098675e+00    1.01560275025956614e+00   -6.00698098198113921e-07   -5.47722039162547349e-06   -2.33209983161644729e-06
2037-01-05T07:00:29.327664     1.48420818033223283e+07    1.36344473279415250e+08    5.80524367738840207e+07   -2.97675840787129502e+01    2.71437841807310676e+00    1.00720690018322023e+00   -5.96396707338998612e-07   -5.47764982500120584e-06   -2.33226118988190468e-06
2037-01-05T08:00:29.327664     1.47349146469416097e+07    1.36354209545476139e+08    5.80560476052698642e+07   -2.97697233637680156e+01    2.69465811034745295e+00    9.98810471424167901e-01   -5.92094946951701866e-07   -5.47807637924041176e-06   -2.33242132199415839e-06
2037-01-05T09:00:29.327664     1.46277398170110118e+07    1.36363874815672427e+08    5.80596282084776387e+07   -2.97718471618242368e+01    2.67493627220946273e+00    9.90413468396772911e-01   -5.87792819343344176e-07   -5.47850005403929865e-06   -2.33258022783553307e-06
2037-01-05T10:00:29.327664     1.45205573692861088e+07    1.36373469084513366e+08    5.80631785814479291e+07   -2.97739554715637702e+01    2.65521291402566639e+00    9.82015895515820914e-01   -5.83490326821377971e-07   -5.47892084909571377e-06   -2.33273790728904501e-06
2037-01-05T11:00:29.327664     1.44133673595271930e+07    1.36382992346545398e+08    5.80666987221371979e+07   -2.97760482916770819e+01    2.63548804616367827e+00    9.73617757196517664e-01   -5.79187471693572995e-07   -5.47933876410904343e-06   -2.33289436023837499e-06
2037-01-05T12:00:29.327664     1.43061698434992656e+07    1.36392444596352339e+08    5.80701886285178289e+07   -2.97781256208629479e+01    2.61576167899219136e+00    9.65219057854486695e-01   -5.74884256268013457e-07   -5.47975379878029939e-06   -2.33304958656788607e-06
2037-01-05T13:00:29.327664     1.41989648769719973e+07    1.36401825828555405e+08    5.80736482985780761e+07   -2.97801874578284469e+01    2.59603382288097295e+00    9.56819801905766321e-01   -5.70580682853119094e-07   -5.48016595281210111e-06   -2.33320358616260623e-06
2037-01-05T14:00:29.327664     1.40917525157196913e+07    1.36411136037813008e+08    5.80770777303221077e+07   -2.97822338012889745e+01    2.57630448820085745e+00    9.48419993766807412e-01   -5.66276753757644117e-07   -5.48057522590889844e-06   -2.33335635890839567e-06
2037-01-05T15:00:29.327664     1.39845328155212663e+07    1.36420375218821019e+08    5.80804769217699990e+07   -2.97842646499682395e+01    2.55657368532374196e+00    9.40019637854471179e-01   -5.61972471290598541e-07   -5.48098161777606031e-06   -2.33350790469145466e-06
2037-01-05T16:00:29.327664     1.38773058321602196e+07    1.36429543366312563e+08    5.80838458709577024e+07   -2.97862800025982573e+01    2.53684142462257833e+00    9.31618738586026063e-01   -5.57667837761395037e-07   -5.48138512812152974e-06   -2.33365822339910452e-06
2037-01-05T17:00:29.327665     1.37700716214245930e+07    1.36438640475058168e+08    5.80871845759370998e+07   -2.97882798579193597e+01    2.51710771647136999e+00    9.23217300379146288e-01   -5.53362855479703776e-07   -5.48178575665405615e-06   -2.33380731491901006e-06
2037-01-05T18:00:29.327664     1.36628302391069587e+07    1.36447666539865673e+08    5.80904930347759500e+07   -2.97902642146802030e+01    2.49737257124516399e+00    9.14815327651908539e-01   -5.49057526755542000e-07   -5.48218350308461413e-06   -2.33395517913975382e-06
2037-01-05T19:00:29.327664     1.35555817410043702e+07    1.36456621555580318e+08    5.80937712455579489e+07   -2.97922330716377459e+01    2.47763599932004697e+00    9.06412824822789620e-01   -5.44751853899185086e-07   -5.48257836712495241e-06   -2.33410181595029658e-06
2037-01-05T20:00:29.327664     1.34483261829183418e+07    1.36465505517084628e+08    5.80970192063826695e+07   -2.97941864275572748e+01    2.45789801107313854e+00    8.98009796310664576e-01   -5.40445839221243516e-07   -5.48297034848879335e-06   -2.33424722524040672e-06
2037-01-05T21:00:29.327664     1.33410636206548214e+07    1.36474318419298530e+08    5.81002369153656140e+07   -2.97961242812123928e+01    2.43815861688258462e+00    8.89606246534803580e-01   -5.36139485032746313e-07   -5.48335944689254355e-06   -2.33439140690100462e-06
2037-01-05T22:00:29.327664     1.32337941100241560e+07    1.36483060257179290e+08    5.81034243706381917e+07   -2.97980466313850201e+01    2.41841782712755382e+00    8.81202179914869599e-01   -5.31832793644885873e-07   -5.48374566205272817e-06   -2.33453436082305468e-06
2037-01-05T23:00:29.327664     1.31265177068410609e+07    1.36491731025721610e+08    5.81065815703477189e+07   -2.97999534768653973e+01    2.39867565218822953e+00    8.72797600870916401e-01   -5.27525767369147874e-07   -5.48412899368730643e-06   -2.33467608689814517e-06
2037-01-06T00:00:29.327664     1.30192344669245929e+07    1.36500330719957501e+08    5.81097085126574188e+07   -2.98018448164520926e+01    2.37893210244580544e+00    8.64392513823385444e-01   -5.23218408517494135e-07   -5.48450944151755874e-06   -2.33481658501925686e-06
2037-01-06T01:00:29.327664     1.29119444460981172e+07    1.36508859334956318e+08    5.81128051957464367e+07   -2.98037206489519981e+01    2.35918718828247931e+00    8.55986923193103877e-01   -5.18910719402055458e-07   -5.48488700526506199e-06   -2.33495585507952299e-06
2037-01-06T02:00:29.327664     1.28046477001892813e+07    1.36517316865824878e+08    5.81158716178098470e+07   -2.98055809731803159e+01    2.33944092008144722e+00    8.47580833401281875e-01   -5.14602702335355031e-07   -5.48526168465379524e-06   -2.33509389697307079e-06
2037-01-06T03:00:29.327664     1.26973442850299850e+07    1.36525703307707340e+08    5.81189077770586088e+07   -2.98074257879605966e+01    2.31969330822689779e+00    8.39174248869510198e-01   -5.10294359630057393e-07   -5.48563347940779262e-06   -2.33523071059409103e-06
2037-01-06T04:00:29.327665     1.25900342564563416e+07    1.36534018655785203e+08    5.81219136717196256e+07   -2.98092550921246939e+01    2.29994436310400596e+00    8.30767174019757748e-01   -5.05985693599242022e-07   -5.48600238925384705e-06   -2.33536629583789340e-06
2037-01-06T05:00:29.327664     1.24827176703086626e+07    1.36542262905277431e+08    5.81248893000357151e+07   -2.98110688845128102e+01    2.28019409509892901e+00    8.22359613274369128e-01   -5.01676706556509532e-07   -5.48636841392230133e-06   -2.33550065260135629e-06
2037-01-06T06:00:29.327664     1.23753945824314132e+07    1.36550436051440328e+08    5.81278346602656171e+07   -2.98128671639734577e+01    2.26044251459879764e+00    8.13951571056062195e-01   -4.97367400815179219e-07   -5.48673155313983235e-06   -2.33563378077974789e-06
2037-01-06T07:00:29.327664     1.22680650486731939e+07    1.36558538089567631e+08    5.81307497506839782e+07   -2.98146499293634903e+01    2.24068963199171289e+00    8.05543051787925402e-01   -4.93057778689496607e-07   -5.48709180664057510e-06   -2.33576568027155639e-06
